ONEWEB-0228             
1 48780U 21045P   24298.46948476 -.00000020  00000+0 -85888-4 0  9996
2 48780  87.9120  18.7456 0001894  99.8565 260.2779 13.15552081166479
